{
  "norad_id": 55493,
  "name": "STARLINK-5362",
  "history": [
    {
      "epoch": "2026-03-28T16:01:04.529856",
      "apogee_km": 486.84166870689387,
      "perigee_km": 484.2485696022777,
      "latitude_deg": 18.968836469418424,
      "longitude_deg": 153.37169984006323,
      "semi_major_axis_km": 6863.682119154586,
      "eccentricity": 0.0001889,
      "inclination_deg": 43.0022,
      "raan_deg": 232.0375,
      "arg_perigee_deg": 269.7647,
      "mean_anomaly_deg": 90.2988,
      "mean_motion_rev_day": 15.26746804
    }
  ]
}